[{"OBJECT_NAME":"LIZZIESAT-1 (LS-1)","OBJECT_ID":"2024-043AL","EPOCH":"2026-03-09T21:24:55.126944","MEAN_MOTION":15.26635712,"ECCENTRICITY":0.00099234,"INCLINATION":97.5461,"RA_OF_ASC_NODE":203.4772,"ARG_OF_PERICENTER":229.9925,"MEAN_ANOMALY":130.0443,"EPHEMERIS_TYPE":0,"CLASSIFICATION_TYPE":"U","NORAD_CAT_ID":59132,"ELEMENT_SET_NO":999,"REV_AT_EPOCH":11178,"BSTAR":0.0002232873,"MEAN_MOTION_DOT":5.784e-5,"MEAN_MOTION_DDOT":0},{"OBJECT_NAME":"STARLINK-35589","OBJECT_ID":"2025-259E","EPOCH":"2026-03-09T13:48:33.310656","MEAN_MOTION":15.27585849,"ECCENTRICITY":0.0001843,"INCLINATION":42.9999,"RA_OF_ASC_NODE":275.0108,"ARG_OF_PERICENTER":261.7628,"MEAN_ANOMALY":98.3015,"EPHEMERIS_TYPE":0,"CLASSIFICATION_TYPE":"U","NORAD_CAT_ID":66426,"ELEMENT_SET_NO":999,"REV_AT_EPOCH":1947,"BSTAR":0.00089058,"MEAN_MOTION_DOT":0.0002433,"MEAN_MOTION_DDOT":0}]
